STARLINK-2565
1 48280U 21036E   26092.83335647  .01468324  00000+0  77618-1 0  9999
2 48280  53.0762 348.1803 0001169 124.7681 181.3908 15.11776579  5666
